IRIDIUM 36 [-]          
1 24967U 97056C   24113.68745062  .00001373  00000+0  45941-3 0  9993
2 24967  86.3997 349.5984 0002038  85.8008 274.3422 14.36742782391827
IRIDIUM 39 [-]          
1 25042U 97069D   24113.86079197  .00002197  00000+0  58744-3 0  9991
2 25042  86.3968  31.2188 0015953 269.5063  90.4312 14.47865680388111
IRIDIUM 38 [-]          
1 25043U 97069E   24113.92133715  .00001743  00000+0  57946-3 0  9995
2 25043  86.3983  49.8727 0003733  64.8782 295.2802 14.37192391385577
IRIDIUM 42 [-]          
1 25077U 97077A   24113.90883234  .00001651  00000+0  56760-3 0  9998
2 25077  86.3976  55.5330 0002811  78.8222 281.3291 14.35498820380881
IRIDIUM 44 [-]          
1 25078U 97077B   24113.87741427  .00001641  00000+0  52222-3 0  9990
2 25078  86.3995  38.6012 0002184  37.5845 322.5506 14.39328495383253
IRIDIUM 45 [-]          
1 25104U 97082A   24113.81141247  .00027190  00000+0  15509-2 0  9997
2 25104  86.3739 248.2071 0165172  81.1185 280.8707 15.01702470388547
IRIDIUM 24 [-]          
1 25105U 97082B   24113.89500657  .00001861  00000+0  57176-3 0  9994
2 25105  86.3885 258.2719 0012497  34.9168 325.2849 14.41096185382916
IRIDIUM 51 [-]          
1 25262U 98018A   24113.92273732  .00025219  00000+0  12065-2 0  9993
2 25262  86.3958 258.1355 0150138  26.9801 333.9139 15.09338242383294
